NORAD_CAT_ID,OBJECT_NAME,OBJECT_TYPE,EPOCH,MEAN_MOTION,ECCENTRICITY,INCLINATION,RA_OF_ASC_NODE,ARG_OF_PERICENTER,MEAN_ANOMALY,BSTAR,MEAN_MOTION_DOT,MEAN_MOTION_DDOT,TLE_LINE0,TLE_LINE1,TLE_LINE2,SEMIMAJOR_AXIS,PERIOD,APOGEE,PERIGEE,DECAYED
55422.0,STARLINK-5006,PAYLOAD,2023-12-30 03:46:26,14.98331789,0.0002863,69.9999,302.739,265.9903,94.0929,2.9984e-05,2.65e-06,0.0,0 STARLINK-5006,1 55422U 23014AH  23364.15724731  .00000265  00000-0  29984-4 0  9995,2 55422  69.9999 302.7390 0002863 265.9903  94.0929 14.98331789 50717,6950.187,96.107,574.042,570.063,0.0
55422.0,STARLINK-5006,PAYLOAD,2023-12-30 05:22:34,14.98333503,0.0002592,70.0001,302.5711,261.45,98.6365,3.9691e-05,3.81e-06,0.0,0 STARLINK-5006,1 55422U 23014AH  23364.22400600  .00000381  00000-0  39691-4 0  9994,2 55422  70.0001 302.5711 0002592 261.4500  98.6365 14.98333503 51667,6950.182,96.107,573.849,570.246,0.0
55422.0,STARLINK-5006,PAYLOAD,2023-12-30 23:00:03,14.98333105,0.0002593,70.0001,300.7199,259.0787,101.0081,-0.00017748,-2.21e-05,0.0,0 STARLINK-5006,1 55422U 23014AH  23364.95837243 -.00002210  00000-0 -17748-3 0  9994,2 55422  70.0001 300.7199 0002593 259.0787 101.0081 14.98333105 51772,6950.183,96.107,573.85,570.246,0.0
55422.0,STARLINK-5006,PAYLOAD,2023-12-31 03:48:27,14.98320621,0.0002571,70.0006,300.2154,257.7967,102.2904,-3.0965e-05,-4.62e-06,0.0,0 STARLINK-5006,1 55422U 23014AH  23365.15865660 -.00000462  00000-0 -30965-4 0  9995,2 55422  70.0006 300.2154 0002571 257.7967 102.2904 14.98320621 50869,6950.222,96.108,573.874,570.3,0.0
55422.0,STARLINK-5006,PAYLOAD,2023-12-31 21:25:56,14.98327059,0.000264,70.0018,298.3661,262.2272,97.8587,6.7518e-06,-1.2e-07,0.0,0 STARLINK-5006,1 55422U 23014AH  23365.89301234 -.00000012  00000-0  67518-5 0  9993,2 55422  70.0018 298.3661 0002640 262.2272  97.8587 14.98327059 51914,6950.202,96.107,573.902,570.232,0.0
55422.0,STARLINK-5006,PAYLOAD,2024-01-01 03:50:28,14.98331313,0.0002482,70.0008,297.6912,253.551,106.5376,2.7584e-05,2.36e-06,0.0,0 STARLINK-5006,1 55422U 23014AH  24001.16004880  .00000236  00000-0  27584-4 0  9993,2 55422  70.0008 297.6912 0002482 253.5510 106.5376 14.98331313 51019,6950.189,96.107,573.779,570.329,0.0
55422.0,STARLINK-5006,PAYLOAD,2024-01-01 05:26:36,14.98331094,0.0002505,70.0009,297.5232,248.4816,111.6076,7.1641e-06,-7e-08,0.0,0 STARLINK-5006,1 55422U 23014AH  24001.22680921 -.00000007  00000-0  71641-5 0  9997,2 55422  70.0009 297.5232 0002505 248.4816 111.6076 14.98331094 51966,6950.19,96.107,573.796,570.313,0.0
55422.0,STARLINK-5006,PAYLOAD,2024-01-01 23:04:04,14.98328751,0.0002829,69.9996,295.669,266.9833,93.1003,9.0871e-05,9.91e-06,0.0,0 STARLINK-5006,1 55422U 23014AH  24001.96116766  .00000991  00000-0  90871-4 0  9995,2 55422  69.9996 295.6690 0002829 266.9833  93.1003 14.98328751 52071,6950.197,96.107,574.028,570.096,0.0
55422.0,STARLINK-5006,PAYLOAD,2024-01-02 03:52:28,14.98332517,0.0002737,69.9999,295.1647,261.504,98.5809,0.00011531,1.283e-05,0.0,0 STARLINK-5006,1 55422U 23014AH  24002.16144411  .00001283  00000-0  11531-3 0  9996,2 55422  69.9999 295.1647 0002737 261.5040  98.5809 14.98332517 51167,6950.185,96.107,573.952,570.148,0.0
55422.0,STARLINK-5006,PAYLOAD,2024-01-02 05:28:36,14.98333605,0.0002757,70.0,294.9966,260.2932,99.7915,0.0001269,1.422e-05,0.0,0 STARLINK-5006,1 55422U 23014AH  24002.22820299  .00001422  00000-0  12690-3 0  9990,2 55422  70.0000 294.9966 0002757 260.2932  99.7915 14.98333605 52118,6950.182,96.107,573.963,570.131,0.0
55422.0,STARLINK-5006,PAYLOAD,2024-01-02 21:29:57,14.98331515,0.0002616,70.0003,293.3136,254.1819,105.9052,-1.6738e-05,-2.93e-06,0.0,0 STARLINK-5006,1 55422U 23014AH  24002.89580690 -.00000293  00000-0 -16738-4 0  9996,2 55422  70.0003 293.3136 0002616 254.1819 105.9052 14.98331515 52214,6950.188,96.107,573.871,570.235,0.0
55422.0,STARLINK-5006,PAYLOAD,2024-01-03 03:54:29,14.98331451,0.0002621,70.0002,292.6405,254.5434,105.5436,-1.7353e-05,-3e-06,0.0,0 STARLINK-5006,1 55422U 23014AH  24003.16284657 -.00000300  00000-0 -17353-4 0  9994,2 55422  70.0002 292.6405 0002621 254.5434 105.5436 14.98331451 51318,6950.188,96.107,573.875,570.232,0.0
55422.0,STARLINK-5006,PAYLOAD,2024-01-03 05:30:37,14.98331607,0.000262,70.0002,292.4721,255.6602,104.4266,-1.5427e-05,-2.77e-06,0.0,0 STARLINK-5006,1 55422U 23014AH  24003.22960638 -.00000277  00000-0 -15427-4 0  9994,2 55422  70.0002 292.4721 0002620 255.6602 104.4266 14.98331607 52262,6950.188,96.107,573.874,570.232,0.0
55422.0,STARLINK-5006,PAYLOAD,2024-01-03 21:31:58,14.98331015,0.0002501,70.0004,290.7891,254.4425,105.6458,-1.5717e-05,-2.8e-06,0.0,0 STARLINK-5006,1 55422U 23014AH  24003.89720580 -.00000280  00000-0 -15717-4 0  9993,2 55422  70.0004 290.7891 0002501 254.4425 105.6458 14.98331015 52361,6950.19,96.107,573.793,570.317,0.0
55422.0,STARLINK-5006,PAYLOAD,2024-01-04 03:56:32,14.98309317,0.0002858,69.9991,290.1142,264.8316,95.2516,-0.00025814,-3.17e-05,0.0,0 STARLINK-5006,1 55422U 23014AH  24004.16426674 -.00003170  00000-0 -25814-3 0  9990,2 55422  69.9991 290.1142 0002858 264.8316  95.2516 14.98309317 51464,6950.257,96.108,574.108,570.135,0.0
55422.0,STARLINK-5006,PAYLOAD,2024-01-04 19:57:53,14.98315677,0.0002368,70.0001,288.4327,256.1243,103.9653,-0.00010008,-1.286e-05,0.0,0 STARLINK-5006,1 55422U 23014AH  24004.83186507 -.00001286  00000-0 -10008-3 0  9997,2 55422  70.0001 288.4327 0002368 256.1243 103.9653 14.98315677 51569,6950.237,96.108,573.748,570.456,0.0
55422.0,STARLINK-5006,PAYLOAD,2024-01-04 21:34:01,14.98317511,0.0002251,70.0003,288.2643,255.0622,105.0288,-7.0625e-05,-9.35e-06,0.0,0 STARLINK-5006,1 55422U 23014AH  24004.89862379 -.00000935  00000-0 -70625-4 0  9993,2 55422  70.0003 288.2643 0002251 255.0622 105.0288 14.98317511 52512,6950.232,96.108,573.661,570.532,0.0
55422.0,STARLINK-5006,PAYLOAD,2024-01-05 05:34:41,14.98318424,0.0002153,70.0007,287.4237,254.4566,105.6355,-4.2355e-05,-5.98e-06,0.0,0 STARLINK-5006,1 55422U 23014AH  24005.23242599 -.00000598  00000-0 -42355-4 0  9992,2 55422  70.0007 287.4237 0002153 254.4566 105.6355 14.98318424 52567,6950.229,96.108,573.59,570.597,0.0
55422.0,STARLINK-5006,PAYLOAD,2024-01-05 21:36:01,14.98328668,0.0002729,69.9997,285.7389,270.5985,89.4861,0.00011529,1.283e-05,0.0,0 STARLINK-5006,1 55422U 23014AH  24005.90001503  .00001283  00000-0  11529-3 0  9992,2 55422  69.9997 285.7389 0002729 270.5985  89.4861 14.98328668 52667,6950.197,96.107,573.959,570.165,0.0
55422.0,STARLINK-5006,PAYLOAD,2024-01-06 04:00:32,14.98340508,0.0002739,69.9987,285.0644,271.0008,89.0837,0.00014406,1.627e-05,0.0,0 STARLINK-5006,1 55422U 23014AH  24006.16704640  .00001627  00000-0  14406-3 0  9992,2 55422  69.9987 285.0644 0002739 271.0008  89.0837 14.98340508 51762,6950.16,96.106,573.929,570.122,0.0
55422.0,STARLINK-5006,PAYLOAD,2024-01-06 20:01:53,14.98334574,0.0002564,69.9989,283.3807,272.9392,87.1474,0.0001238,1.385e-05,0.0,0 STARLINK-5006,1 55422U 23014AH  24006.83465150  .00001385  00000-0  12380-3 0  9996,2 55422  69.9989 283.3807 0002564 272.9392  87.1474 14.98334574 51861,6950.179,96.107,573.826,570.262,0.0
55422.0,STARLINK-5006,PAYLOAD,2024-01-06 21:38:01,14.98335037,0.0002389,69.999,283.2118,269.3714,90.7171,0.00012254,1.37e-05,0.0,0 STARLINK-5006,1 55422U 23014AH  24006.90141077  .00001370  00000-0  12254-3 0  9997,2 55422  69.9990 283.2118 0002389 269.3714  90.7171 14.98335037 52815,6950.177,96.107,573.703,570.382,0.0
55422.0,STARLINK-5006,PAYLOAD,2024-01-07 04:02:33,14.98339255,0.000246,69.9991,282.5391,271.014,89.0737,0.00015931,1.809e-05,0.0,0 STARLINK-5006,1 55422U 23014AH  24007.16844576  .00001809  00000-0  15931-3 0  9992,2 55422  69.9991 282.5391 0002460 271.0140  89.0737 14.98339255 52853,6950.164,96.106,573.739,570.32,0.0
55422.0,STARLINK-5006,PAYLOAD,2024-01-07 20:03:54,14.98337536,0.0002179,69.9996,280.8572,261.1999,98.8914,-5.2088e-05,-7.14e-06,0.0,0 STARLINK-5006,1 55422U 23014AH  24007.83604896 -.00000714  00000-0 -52088-4 0  9996,2 55422  69.9996 280.8572 0002179 261.1999  98.8914 14.98337536 52012,6950.17,96.107,573.549,570.52,0.0
55422.0,STARLINK-5006,PAYLOAD,2024-01-07 21:40:02,14.9833824,0.0002327,69.9994,280.6887,266.2687,93.8206,-9.0267e-05,-1.17e-05,0.0,0 STARLINK-5006,1 55422U 23014AH  24007.90280935 -.00001170  00000-0 -90267-4 0  9996,2 55422  69.9994 280.6887 0002327 266.2687  93.8206 14.98338240 52968,6950.167,96.106,573.65,570.415,0.0
55422.0,STARLINK-5006,PAYLOAD,2024-01-08 04:04:34,14.98337615,0.0002274,69.9994,280.0145,269.5909,90.4989,-2.2674e-05,-3.63e-06,0.0,0 STARLINK-5006,1 55422U 23014AH  24008.16984670 -.00000363  00000-0 -22674-4 0  9992,2 55422  69.9994 280.0145 0002274 269.5909  90.4989 14.98337615 53005,6950.169,96.107,573.615,570.454,0.0
55422.0,STARLINK-5006,PAYLOAD,2024-01-08 20:05:55,14.98332951,0.0002353,69.9992,278.3314,267.9396,92.1493,-9.3642e-05,-1.21e-05,0.0,0 STARLINK-5006,1 55422U 23014AH  24008.83744852 -.00001210  00000-0 -93642-4 0  9997,2 55422  69.9992 278.3314 0002353 267.9396  92.1493 14.98332951 52164,6950.184,96.107,573.684,570.413,0.0
55422.0,STARLINK-5006,PAYLOAD,2024-01-08 21:42:03,14.98332379,0.000235,69.9993,278.1631,267.5864,92.5026,-9.5466e-05,-1.232e-05,0.0,0 STARLINK-5006,1 55422U 23014AH  24008.90420877 -.00001232  00000-0 -95466-4 0  9993,2 55422  69.9993 278.1631 0002350 267.5864  92.5026 14.98332379 53114,6950.186,96.107,573.684,570.417,0.0
55422.0,STARLINK-5006,PAYLOAD,2024-01-09 04:06:35,14.98332501,0.0002366,69.9994,277.4904,263.0023,97.0867,-6.5953e-05,-8.8e-06,0.0,0 STARLINK-5006,1 55422U 23014AH  24009.17124672 -.00000880  00000-0 -65953-4 0  9993,2 55422  69.9994 277.4904 0002366 263.0023  97.0867 14.98332501 53159,6950.185,96.107,573.695,570.406,0.0
55422.0,STARLINK-5006,PAYLOAD,2024-01-09 20:07:56,14.98333574,0.0002394,69.9991,275.8064,265.463,94.6255,1.9464e-05,1.39e-06,0.0,0 STARLINK-5006,1 55422U 23014AH  24009.83884293  .00000139  00000-0  19464-4 0  9999,2 55422  69.9991 275.8064 0002394 265.4630  94.6255 14.98333574 52318,6950.182,96.107,573.711,570.383,0.0
